[{"OBJECT_NAME":"OBJECT B","OBJECT_ID":"2025-313B","EPOCH":"2026-03-09T22:01:30.454176","MEAN_MOTION":14.73613198,"ECCENTRICITY":0.02934893,"INCLINATION":97.5206,"RA_OF_ASC_NODE":141.38,"ARG_OF_PERICENTER":298.1139,"MEAN_ANOMALY":59.0692,"EPHEMERIS_TYPE":0,"CLASSIFICATION_TYPE":"U","NORAD_CAT_ID":67249,"ELEMENT_SET_NO":999,"REV_AT_EPOCH":1051,"BSTAR":0.00024043091,"MEAN_MOTION_DOT":3.075e-5,"MEAN_MOTION_DDOT":0},{"OBJECT_NAME":"CZ-6A DEB","OBJECT_ID":"2024-140ABL","EPOCH":"2026-03-08T00:23:38.923872","MEAN_MOTION":14.13634398,"ECCENTRICITY":0.00749786,"INCLINATION":88.7921,"RA_OF_ASC_NODE":273.3637,"ARG_OF_PERICENTER":179.8583,"MEAN_ANOMALY":180.2638,"EPHEMERIS_TYPE":0,"CLASSIFICATION_TYPE":"U","NORAD_CAT_ID":61796,"ELEMENT_SET_NO":999,"REV_AT_EPOCH":7859,"BSTAR":0.00048759467,"MEAN_MOTION_DOT":9.59e-6,"MEAN_MOTION_DDOT":0}]
